H1 CPF  1  SGF 2022  2 18  2  5491 larets    
H2  0304206 5557    27944 2022  2 17  0  0  0 2022  2 22 23 57  0   180 1 1  0 0 0
H9
10 0 59632  28080.00000  0    262336.930   5582554.853  -4320931.265
10 0 59632  28260.00000  0    522355.285   4654871.854  -5286896.815
10 0 59632  28440.00000  0    736773.606   3552077.195  -6059656.980
10 0 59632  28620.00000  0    893780.393   2315633.977  -6611139.542
10 0 59632  28800.00000  0    984803.901    992036.033  -6921343.217
10 0 59632  28980.00000  0   1004921.429   -368951.412  -6979016.744
10 0 59632  29160.00000  0    953092.001  -1716154.834  -6782037.691
10 0 59632  29340.00000  0    832204.655  -2998894.969  -6337483.524
10 0 59632  29520.00000  0    648943.705  -4168875.394  -5661407.220
10 0 59632  29700.00000  0    413470.819  -5182010.160  -4778305.851
10 0 59632  29880.00000  0    138936.657  -6000117.615  -3720285.599
10 0 59632  30060.00000  0   -159163.124  -6592418.862  -2525938.006
10 0 59632  30240.00000  0   -463760.434  -6936769.094  -1238952.157
10 0 59632  30420.00000  0   -757080.929  -7020557.699     93495.919
10 0 59632  30600.00000  0  -1021559.978  -6841217.543   1422512.595
10 0 59632  30780.00000  0  -1240761.238  -6406315.612   2699334.262
10 0 59632  30960.00000  0  -1400247.107  -5733215.731   3877172.229
10 0 59632  31140.00000  0  -1488351.843  -4848330.164   4912964.239
10 0 59632  31320.00000  0  -1496820.115  -3786013.298   5768952.266
10 0 59632  31500.00000  0  -1421283.476  -2587161.207   6414037.722
10 0 59632  31680.00000  0  -1261550.583  -1297583.333   6824863.260
10 0 59632  31860.00000  0  -1021705.164     33769.288   6986602.990
10 0 59632  32040.00000  0   -710013.939   1356660.897   6893453.768
10 0 59632  32220.00000  0   -338641.349   2621450.318   6548822.781
10 0 59632  32400.00000  0     76820.826   3780936.392   5965208.605
10 0 59632  32580.00000  0    517990.161   4792112.828   5163778.463
10 0 59632  32760.00000  0    964477.684   5617779.063   4173647.247
10 0 59632  32940.00000  0   1394790.992   6227947.525   3030866.556
10 0 59632  33120.00000  0   1787324.198   6600994.924   1777150.589
10 0 59632  33300.00000  0   2121389.154   6724494.230    458352.491
10 0 59632  33480.00000  0   2378231.499   6595667.914   -877237.098
10 0 59632  33660.00000  0   2541980.397   6221444.387  -2180695.635
10 0 59632  33840.00000  0   2600484.051   5618115.390  -3404303.220
10 0 59632  34020.00000  0   2545986.417   4810607.370  -4503327.932
10 0 59632  34200.00000  0   2375607.322   3831403.048  -5437677.636
10 0 59632  34380.00000  0   2091604.864   2719181.548  -6173348.339
10 0 59632  34560.00000  0   1701413.931   1517247.719  -6683625.847
10 0 59632  34740.00000  0   1217462.127    271822.766  -6950006.056
10 0 59632  34920.00000  0    656773.108   -969733.057  -6962822.595
10 0 59632  35100.00000  0     40367.047  -2160707.760  -6721570.794
10 0 59632  35280.00000  0   -607517.239  -3256773.351  -6234928.554
10 0 59632  35460.00000  0  -1260360.223  -4217629.212  -5520477.570
10 0 59632  35640.00000  0  -1890429.110  -5008498.525  -4604117.382
10 0 59632  35820.00000  0  -2469941.690  -5601428.238  -3519181.356
10 0 59632  36000.00000  0  -2972281.529  -5976334.888  -2305263.064
10 0 59632  36180.00000  0  -3373208.551  -6121745.074  -1006786.717
10 0 59632  36360.00000  0  -3652006.673  -6035190.376    328635.359
10 0 59632  36540.00000  0  -3792503.609  -5723223.218   1651994.150
10 0 59632  36720.00000  0  -3783905.917  -5201048.649   2914740.239
10 0 59632  36900.00000  0  -3621404.079  -4491790.841   4070616.358
10 0 59632  37080.00000  0  -3306518.189  -3625440.693   5077381.896
10 0 59632  37260.00000  0  -2847171.082  -2637542.140   5898357.145
10 0 59632  37440.00000  0  -2257490.299  -1567692.903   6503729.666
10 0 59632  37620.00000  0  -1557353.408   -457932.894   6871592.084
10 0 59632  37800.00000  0   -771696.267    648918.223   6988681.577
10 0 59632  37980.00000  0     70380.071   1710901.237   6850812.031
10 0 59632  38160.00000  0    936680.059   2688491.124   6463008.355
10 0 59632  38340.00000  0   1793131.857   3546055.163   5839332.655
10 0 59632  38520.00000  0   2605112.143   4253151.398   5002410.153
10 0 59632  38700.00000  0   3338838.753   4785629.836   3982656.942
10 0 59632  38880.00000  0   3962777.358   5126489.400   2817220.376
10 0 59632  39060.00000  0   4449009.677   5266461.369   1548656.648
10 0 59632  39240.00000  0   4774489.338   5204274.915    223373.850
10 0 59632  39420.00000  0   4922122.092   4946593.836  -1110091.497
10 0 59632  39600.00000  0   4881609.178   4507612.632  -2402895.842
10 0 59632  39780.00000  0   4650011.405   3908340.303  -3607719.841
10 0 59632  39960.00000  0   4232002.593   3175610.037  -4680533.801
10 0 59632  40140.00000  0   3639800.602   2340867.599  -5582216.617
10 0 59632  40320.00000  0   2892788.896   1438803.178  -6279965.939
10 0 59632  40500.00000  0   2016847.870    505895.900  -6748452.218
10 0 59632  40680.00000  0   1043433.357   -421061.725  -6970686.690
10 0 59632  40860.00000  0      8440.645  -1306404.154  -6938597.795
10 0 59632  41040.00000  0  -1049113.176  -2116950.024  -6653301.633
10 0 59632  41220.00000  0  -2088542.724  -2823232.726  -6125071.446
10 0 59632  41400.00000  0  -3069044.072  -3400572.727  -5373001.839
10 0 59632  41580.00000  0  -3951293.008  -3829956.656  -4424373.079
10 0 59632  41760.00000  0  -4699040.941  -4098692.910  -3313713.920
10 0 59632  41940.00000  0  -5280637.222  -4200809.573  -2081580.215
10 0 59632  42120.00000  0  -5670407.865  -4137173.470   -773082.065
10 0 59632  42300.00000  0  -5849817.685  -3915317.573    563789.192
10 0 59632  42480.00000  0  -5808352.068  -3548982.590   1879967.347
10 0 59632  42660.00000  0  -5544062.733  -3057390.201   3127172.518
10 0 59632  42840.00000  0  -5063746.795  -2464287.583   4259731.232
10 0 59632  43020.00000  0  -4382756.988  -1796819.297   5236276.054
10 0 59632  43200.00000  0  -3524459.046  -1084287.931   6021248.701
10 0 59632  43380.00000  0  -2519377.818   -356871.324   6586162.047
10 0 59632  43560.00000  0  -1404065.221    355651.567   6910587.040
10 0 59632  43740.00000  0   -219744.532   1025105.868   6982835.309
10 0 59632  43920.00000  0    989211.919   1626017.723   6800341.502
10 0 59632  44100.00000  0   2176929.625   2136572.438   6369741.702
10 0 59632  44280.00000  0   3297754.140   2539400.786   5706646.818
10 0 59632  44460.00000  0   4307998.494   2822171.820   4835117.145
10 0 59632  44640.00000  0   5167656.022   2977974.541   3786838.570
10 0 59632  44820.00000  0   5842018.920   3005473.428   2600016.984
10 0 59632  45000.00000  0   6303127.271   2908822.813   1318005.640
10 0 59632  45180.00000  0   6530974.065   2697345.991    -12281.377
10 0 59632  45360.00000  0   6514402.020   2384986.562  -1342118.192
10 0 59632  45540.00000  0   6251634.233   1989557.871  -2622794.848
10 0 59632  45720.00000  0   5750421.730   1531835.730  -3807443.175
10 0 59632  45900.00000  0   5027792.438   1034534.859  -4852785.018
10 0 59632  46080.00000  0   4109416.225    521226.466  -5720718.541
10 0 59632  46260.00000  0   3028633.253     15257.320  -6379682.002
10 0 59632  46440.00000  0   1825195.639   -461281.192  -6805759.746
10 0 59632  46620.00000  0    543779.818   -888492.380  -6983500.974
10 0 59632  46800.00000  0   -767674.330  -1249486.311  -6906442.617
10 0 59632  46980.00000  0  -2059743.042  -1531035.693  -6577327.226
10 0 59632  47160.00000  0  -3283362.497  -1724058.534  -6008017.299
10 0 59632  47340.00000  0  -4391679.604  -1823911.805  -5219105.181
10 0 59632  47520.00000  0  -5341860.142  -1830489.607  -4239225.033
10 0 59632  47700.00000  0  -6096786.294  -1748118.098  -3104064.359
10 0 59632  47880.00000  0  -6626569.559  -1585249.303  -1855096.264
10 0 59632  48060.00000  0  -6909803.059  -1353962.860   -538066.359
10 0 59632  48240.00000  0  -6934484.497  -1069297.552    798710.798
10 0 59632  48420.00000  0  -6698553.137   -748443.319   2106174.671
10 0 59632  48600.00000  0  -6210007.135   -409839.968   3336376.154
10 0 59632  48780.00000  0  -5486596.834    -72229.530   4444283.299
10 0 59632  48960.00000  0  -4555112.128    246285.734   5389451.538
10 0 59632  49140.00000  0  -3450315.540    529130.349   6137486.596
10 0 59632  49320.00000  0  -2213581.715    762046.620   6661259.220
10 0 59632  49500.00000  0   -891303.625    933753.422   6941839.008
10 0 59632  49680.00000  0    466865.629   1036451.059   6969126.086
10 0 59632  49860.00000  0   1809867.258   1066153.612   6742177.676
10 0 59632  50040.00000  0   3087134.443   1022840.293   6269233.521
10 0 59632  50220.00000  0   4250480.293    910420.398   5567438.851
10 0 59632  50400.00000  0   5255917.397    736513.194   4662263.840
10 0 59632  50580.00000  0   6065347.545    512049.225   3586631.808
10 0 59632  50760.00000  0   6648059.639    250709.508   2379761.525
10 0 59632  50940.00000  0   6981957.017    -31776.167   1085753.905
10 0 59632  51120.00000  0   7054457.249   -318441.244   -248026.538
10 0 59632  51300.00000  0   6863009.993   -591962.567  -1572718.937
10 0 59632  51480.00000  0   6415197.067   -835565.555  -2839803.335
10 0 59632  51660.00000  0   5728408.995  -1033904.594  -4002920.628
10 0 59632  51840.00000  0   4829119.512  -1173872.006  -5019594.040
10 0 59632  52020.00000  0   3751802.335  -1245293.021  -5852779.364
10 0 59632  52200.00000  0   2537550.850  -1241477.813  -6472188.866
10 0 59632  52380.00000  0   1232468.152  -1159604.680  -6855347.532
10 0 59632  52560.00000  0   -114100.148  -1000919.605  -6988360.802
10 0 59632  52740.00000  0  -1451426.525   -770749.207  -6866383.024
10 0 59632  52920.00000  0  -2729295.095   -478324.152  -6493782.912
10 0 59632  53100.00000  0  -3899870.228   -136417.906  -5884001.157
10 0 59632  53280.00000  0  -4919483.808    239187.195  -5059108.810
10 0 59632  53460.00000  0  -5750290.822    630390.165  -4049063.552
99
